{"type": "FeatureCollection", "features": [{"type": "Feature", "id": 3238, "geometry": {"type": "Point", "coordinates": [-118.838182290132, 34.0915348302708]}, "properties": {"OBJECTID": 3238, "cat1": "Education", "cat2": "High Schools", "cat3": "Public Schools", "name": "Road to Success Academy at Campus Kilpatrick SDF", "label": "Road to Success Academy at Campus Kilpatrick SDF", "addrln1": "427 South Encinal Canyon Road", "addrln2": null, "city": "Malibu", "state": "CA", "zip": "90265", "organization": "Los Angeles County Office of Education", "source": "California Department of Education (CDE): https://www.cde.ca.gov/schooldirectory/ (school listing), and https://lacounty.maps.arcgis.com/home/item.html?id=61a4260e68b14a5ab91daf27d4415e7d (enrollment and improved location accuracy)", "source_id": "19101990121954", "source_date": "8/19/2024", "latitude": 34.09153483, "longitude": -118.83818229, "enrollment": 6, "label_class": "Public Schools", "last_update": "Mon, 10 Mar 2025 00:00:00 GMT"}}, {"type": "Feature", "id": 4299, "geometry": {"type": "Point", "coordinates": [-118.531117229765, 34.04787583996]}, "properties": {"OBJECTID": 4299, "cat1": "Education", "cat2": "High Schools", "cat3": "Charter Schools", "name": "Palisades Charter High", "label": "Palisades Charter High", "addrln1": "15777 Bowdoin Street", "addrln2": null, "city": "Pacific Palisades", "state": "CA", "zip": "90272-3523", "organization": "Los Angeles Unified", "source": "California Department of Education (CDE): https://www.cde.ca.gov/schooldirectory/ (school listing), and https://lacounty.maps.arcgis.com/home/item.html?id=61a4260e68b14a5ab91daf27d4415e7d (enrollment and improved location accuracy)", "source_id": "19647331995836", "source_date": "8/8/2024", "latitude": 34.04787584, "longitude": -118.53111723, "enrollment": 2991, "label_class": "Charter Schools", "last_update": "Mon, 10 Mar 2025 00:00:00 GMT"}}, {"type": "Feature", "id": 4526, "geometry": {"type": "Point", "coordinates": [-118.547734240303, 34.0457388401738]}, "properties": {"OBJECTID": 4526, "cat1": "Education", "cat2": "Elementary Schools", "cat3": "Charter Schools", "name": "Marquez Charter", "label": "Marquez Charter", "addrln1": "16821 Marquez Avenue", "addrln2": null, "city": "Pacific Palisades", "state": "CA", "zip": "90272-3243", "organization": "Los Angeles Unified", "source": "California Department of Education (CDE): https://www.cde.ca.gov/schooldirectory/ (school listing), and https://lacounty.maps.arcgis.com/home/item.html?id=61a4260e68b14a5ab91daf27d4415e7d (enrollment and improved location accuracy)", "source_id": "19647336018063", "source_date": "8/17/2023", "latitude": 34.04573884, "longitude": -118.54773424, "enrollment": 321, "label_class": "Charter Schools", "last_update": "Mon, 10 Mar 2025 00:00:00 GMT"}}, {"type": "Feature", "id": 4579, "geometry": {"type": "Point", "coordinates": [-118.527212229548, 34.0456048404268]}, "properties": {"OBJECTID": 4579, "cat1": "Education", "cat2": "Elementary Schools", "cat3": "Charter Schools", "name": "Palisades Charter Elementary", "label": "Palisades Charter Elementary", "addrln1": "800 Via de La Paz", "addrln2": null, "city": "Pacific Palisades", "state": "CA", "zip": "90272-3617", "organization": "Los Angeles Unified", "source": "California Department of Education (CDE): https://www.cde.ca.gov/schooldirectory/ (school listing), and https://lacounty.maps.arcgis.com/home/item.html?id=61a4260e68b14a5ab91daf27d4415e7d (enrollment and improved location accuracy)", "source_id": "19647336018634", "source_date": "2/9/2023", "latitude": 34.04560484, "longitude": -118.52721223, "enrollment": 406, "label_class": "Charter Schools", "last_update": "Mon, 10 Mar 2025 00:00:00 GMT"}}, {"type": "Feature", "id": 5097, "geometry": {"type": "Point", "coordinates": [-118.826796279802, 34.02453881966]}, "properties": {"OBJECTID": 5097, "cat1": "Education", "cat2": "Intermediate/Middle/Junior High Schools", "cat3": "Public Schools", "name": "Malibu Middle", "label": "Malibu Middle", "addrln1": "30237 Morning View Drive", "addrln2": null, "city": "Malibu", "state": "CA", "zip": "90265-3616", "organization": "Santa Monica-Malibu Unified", "source": "California Department of Education (CDE): https://www.cde.ca.gov/schooldirectory/ (school listing), and https://lacounty.maps.arcgis.com/home/item.html?id=61a4260e68b14a5ab91daf27d4415e7d (enrollment and improved location accuracy)", "source_id": "19649800139311", "source_date": "8/9/2023", "latitude": 34.02453882, "longitude": -118.82679628, "enrollment": 247, "label_class": "Public Schools", "last_update": "Mon, 10 Mar 2025 00:00:00 GMT"}}, {"type": "Feature", "id": 5098, "geometry": {"type": "Point", "coordinates": [-118.477289999563, 34.0074390000456]}, "properties": {"OBJECTID": 5098, "cat1": "Education", "cat2": "Adult Education Schools", "cat3": null, "name": "Santa Monica-Malibu Adult", "label": "Santa Monica-Malibu Adult", "addrln1": "2510 Lincoln Boulevard", "addrln2": null, "city": "Santa Monica", "state": "CA", "zip": "90405", "organization": "Santa Monica-Malibu Unified", "source": "California Department of Education (CDE): https://www.cde.ca.gov/schooldirectory/ (school listing), and https://lacounty.maps.arcgis.com/home/item.html?id=61a4260e68b14a5ab91daf27d4415e7d (enrollment and improved location accuracy)", "source_id": "19649801932078", "source_date": "5/16/2023", "latitude": 34.007439, "longitude": -118.47729, "enrollment": null, "label_class": "Adult Education Schools", "last_update": "Mon, 10 Mar 2025 00:00:00 GMT"}}, {"type": "Feature", "id": 5101, "geometry": {"type": "Point", "coordinates": [-118.826796279802, 34.02453881966]}, "properties": {"OBJECTID": 5101, "cat1": "Education", "cat2": "High Schools", "cat3": "Public Schools", "name": "Malibu High", "label": "Malibu High", "addrln1": "30215 Morning View Drive", "addrln2": null, "city": "Malibu", "state": "CA", "zip": "90265-3616", "organization": "Santa Monica-Malibu Unified", "source": "California Department of Education (CDE): https://www.cde.ca.gov/schooldirectory/ (school listing), and https://lacounty.maps.arcgis.com/home/item.html?id=61a4260e68b14a5ab91daf27d4415e7d (enrollment and improved location accuracy)", "source_id": "19649801995737", "source_date": "9/16/2024", "latitude": 34.02453882, "longitude": -118.82679628, "enrollment": 390, "label_class": "Public Schools", "last_update": "Mon, 10 Mar 2025 00:00:00 GMT"}}, {"type": "Feature", "id": 5107, "geometry": {"type": "Point", "coordinates": [-118.802212280172, 34.0127048196821]}, "properties": {"OBJECTID": 5107, "cat1": "Education", "cat2": "Elementary Schools", "cat3": "Public Schools", "name": "Malibu Elementary", "label": "Malibu Elementary", "addrln1": "6955 Fernhill Drive", "addrln2": null, "city": "Malibu", "state": "CA", "zip": "90265-4238", "organization": "Santa Monica-Malibu Unified", "source": "California Department of Education (CDE): https://www.cde.ca.gov/schooldirectory/ (school listing), and https://lacounty.maps.arcgis.com/home/item.html?id=61a4260e68b14a5ab91daf27d4415e7d (enrollment and improved location accuracy)", "source_id": "19649806022602", "source_date": "5/17/2023", "latitude": 34.01270482, "longitude": -118.80221228, "enrollment": 191, "label_class": "Public Schools", "last_update": "Mon, 10 Mar 2025 00:00:00 GMT"}}, {"type": "Feature", "id": 5109, "geometry": {"type": "Point", "coordinates": [-118.698412260236, 34.0386048302391]}, "properties": {"OBJECTID": 5109, "cat1": "Education", "cat2": "Elementary Schools", "cat3": "Public Schools", "name": "Webster Elementary", "label": "Webster Elementary", "addrln1": "3602 Winter Canyon", "addrln2": null, "city": "Malibu", "state": "CA", "zip": "90265-4835", "organization": "Santa Monica-Malibu Unified", "source": "California Department of Education (CDE): https://www.cde.ca.gov/schooldirectory/ (school listing), and https://lacounty.maps.arcgis.com/home/item.html?id=61a4260e68b14a5ab91daf27d4415e7d (enrollment and improved location accuracy)", "source_id": "19649806022636", "source_date": "9/16/2024", "latitude": 34.03860483, "longitude": -118.69841226, "enrollment": 205, "label_class": "Public Schools", "last_update": "Mon, 10 Mar 2025 00:00:00 GMT"}}, {"type": "Feature", "id": 5506, "geometry": {"type": "Point", "coordinates": [-118.709380444012, 34.0416834881438]}, "properties": {"OBJECTID": 5506, "cat1": "Education", "cat2": "Colleges, Universities, and Professional Schools", "cat3": "Colleges and Universities", "name": "Pepperdine University", "label": "Pepperdine University", "addrln1": "24255 Pacific Coast Hwy", "addrln2": null, "city": "Malibu", "state": "CA", "zip": "90263", "organization": "HIFLD", "source": "https://nces.ed.gov/collegenavigator/?id=121150", "source_id": "121150", "source_date": null, "latitude": 34.04168349, "longitude": -118.70938044, "enrollment": 9554, "label_class": "Colleges, Universities, and Professional Schools", "last_update": "Mon, 10 Mar 2025 00:00:00 GMT"}}, {"type": "Feature", "id": 5840, "geometry": {"type": "Point", "coordinates": [-118.545052000424, 34.047633000302]}, "properties": {"OBJECTID": 5840, "cat1": "Education", "cat2": "Elementary Schools", "cat3": "Private Schools", "name": "Palisades Montessori Center", "label": "Palisades Montessori Center", "addrln1": "16706 Marquez Ave.", "addrln2": null, "city": "Pacific Palisades", "state": "CA", "zip": "90272-3238", "organization": "Los Angeles Unified", "source": "https://www.cde.ca.gov/ds/si/ps/ - Private School Detailed Affidavits", "source_id": "19647336139133", "source_date": null, "latitude": 34.047633, "longitude": -118.545052, "enrollment": 18, "label_class": "Private Schools", "last_update": "Mon, 10 Mar 2025 00:00:00 GMT"}}, {"type": "Feature", "id": 5956, "geometry": {"type": "Point", "coordinates": [-118.526149000502, 34.0446220001715]}, "properties": {"OBJECTID": 5956, "cat1": "Education", "cat2": "Elementary Schools", "cat3": "Private Schools", "name": "Village School, Inc.", "label": "Village School, Inc.", "addrln1": "780 Swarthmore Ave.", "addrln2": null, "city": "Pacific Palisades", "state": "CA", "zip": "90272-4355", "organization": "Los Angeles Unified", "source": "https://www.cde.ca.gov/ds/si/ps/ - Private School Detailed Affidavits", "source_id": "19647336904080", "source_date": null, "latitude": 34.044622, "longitude": -118.526149, "enrollment": 281, "label_class": "Private Schools", "last_update": "Mon, 10 Mar 2025 00:00:00 GMT"}}, {"type": "Feature", "id": 6018, "geometry": {"type": "Point", "coordinates": [-118.524218000073, 34.0444520003424]}, "properties": {"OBJECTID": 6018, "cat1": "Education", "cat2": "Elementary Schools", "cat3": "Private Schools", "name": "Corpus Christi Elementary", "label": "Corpus Christi Elementary", "addrln1": "890 Toyopa Dr.", "addrln2": null, "city": "Pacific Palisades", "state": "CA", "zip": "90272-3729", "organization": "Los Angeles Unified", "source": "https://www.cde.ca.gov/ds/si/ps/ - Private School Detailed Affidavits", "source_id": "19647336960983", "source_date": null, "latitude": 34.044452, "longitude": -118.524218, "enrollment": 148, "label_class": "Private Schools", "last_update": "Mon, 10 Mar 2025 00:00:00 GMT"}}, {"type": "Feature", "id": 6129, "geometry": {"type": "Point", "coordinates": [-118.542232000212, 34.0539510001969]}, "properties": {"OBJECTID": 6129, "cat1": "Education", "cat2": "Elementary Schools", "cat3": "Private Schools", "name": "St. Matthew's Parish School", "label": "St. Matthew's Parish School", "addrln1": "1031 Bienveneda Ave.", "addrln2": null, "city": "Pacific Palisades", "state": "CA", "zip": "90272-0037", "organization": "Los Angeles Unified", "source": "https://www.cde.ca.gov/ds/si/ps/ - Private School Detailed Affidavits", "source_id": "19647336982821", "source_date": null, "latitude": 34.053951, "longitude": -118.542232, "enrollment": 277, "label_class": "Private Schools", "last_update": "Mon, 10 Mar 2025 00:00:00 GMT"}}, {"type": "Feature", "id": 6156, "geometry": {"type": "Point", "coordinates": [-118.552498999686, 34.0425699999508]}, "properties": {"OBJECTID": 6156, "cat1": "Education", "cat2": "Elementary Schools", "cat3": "Private Schools", "name": "Westside Waldorf School", "label": "Westside Waldorf School", "addrln1": "17310 West Sunset Blvd.", "addrln2": null, "city": "Pacific Palisades", "state": "CA", "zip": "90272-4102", "organization": "Los Angeles Unified", "source": "https://www.cde.ca.gov/ds/si/ps/ - Private School Detailed Affidavits", "source_id": "19647337046758", "source_date": null, "latitude": 34.04257, "longitude": -118.552499, "enrollment": 55, "label_class": "Private Schools", "last_update": "Mon, 10 Mar 2025 00:00:00 GMT"}}, {"type": "Feature", "id": 6160, "geometry": {"type": "Point", "coordinates": [-118.553281999587, 34.0483820004105]}, "properties": {"OBJECTID": 6160, "cat1": "Education", "cat2": "Elementary Schools", "cat3": "Private Schools", "name": "Calvary Christian School", "label": "Calvary Christian School", "addrln1": "701 Palisades Dr.", "addrln2": null, "city": "Pacific Palisades", "state": "CA", "zip": "90272-2839", "organization": "Los Angeles Unified", "source": "https://www.cde.ca.gov/ds/si/ps/ - Private School Detailed Affidavits", "source_id": "19647337066426", "source_date": null, "latitude": 34.048382, "longitude": -118.553282, "enrollment": 379, "label_class": "Private Schools", "last_update": "Mon, 10 Mar 2025 00:00:00 GMT"}}, {"type": "Feature", "id": 6196, "geometry": {"type": "Point", "coordinates": [-118.5258849996, 34.0450899997561]}, "properties": {"OBJECTID": 6196, "cat1": "Education", "cat2": "Elementary Schools", "cat3": "Private Schools", "name": "Seven Arrows Elementary", "label": "Seven Arrows Elementary", "addrln1": "15240 La Cruz Dr", "addrln2": null, "city": "Pacific Palisades", "state": "CA", "zip": "90272-3401", "organization": "Los Angeles Unified", "source": "https://www.cde.ca.gov/ds/si/ps/ - Private School Detailed Affidavits", "source_id": "19647337104425", "source_date": null, "latitude": 34.04509, "longitude": -118.525885, "enrollment": 159, "label_class": "Private Schools", "last_update": "Mon, 10 Mar 2025 00:00:00 GMT"}}, {"type": "Feature", "id": 6300, "geometry": {"type": "Point", "coordinates": [-118.803504999777, 34.0213649998482]}, "properties": {"OBJECTID": 6300, "cat1": "Education", "cat2": "Elementary Schools", "cat3": "Private Schools", "name": "Point Dume School", "label": "Point Dume School", "addrln1": "28990 Pacific Coast Hwy, Ste 116", "addrln2": null, "city": "Malibu", "state": "CA", "zip": "90265-3936", "organization": "Santa Monica-Malibu Unified", "source": "https://www.cde.ca.gov/ds/si/ps/ - Private School Detailed Affidavits", "source_id": "19649806140057", "source_date": null, "latitude": 34.021365, "longitude": -118.803505, "enrollment": 17, "label_class": "Private Schools", "last_update": "Mon, 10 Mar 2025 00:00:00 GMT"}}, {"type": "Feature", "id": 6302, "geometry": {"type": "Point", "coordinates": [-118.638816000498, 34.0456289999142]}, "properties": {"OBJECTID": 6302, "cat1": "Education", "cat2": "Elementary Schools", "cat3": "Private Schools", "name": "Sycamore School", "label": "Sycamore School", "addrln1": "3504 Las Flores Canyon Rd.", "addrln2": null, "city": "Malibu", "state": "CA", "zip": "90265-3434", "organization": "Santa Monica-Malibu Unified", "source": "https://www.cde.ca.gov/ds/si/ps/ - Private School Detailed Affidavits", "source_id": "19649806150270", "source_date": null, "latitude": 34.045629, "longitude": -118.638816, "enrollment": 43, "label_class": "Private Schools", "last_update": "Mon, 10 Mar 2025 00:00:00 GMT"}}, {"type": "Feature", "id": 6303, "geometry": {"type": "Point", "coordinates": [-118.79658800011, 34.0149080002398]}, "properties": {"OBJECTID": 6303, "cat1": "Education", "cat2": "Elementary Schools", "cat3": "Private Schools", "name": "Life Grove, LLC.", "label": "Life Grove, LLC.", "addrln1": "6805 Wildlife Rd.", "addrln2": null, "city": "Malibu", "state": "CA", "zip": "90265-4306", "organization": "Santa Monica-Malibu Unified", "source": "https://www.cde.ca.gov/ds/si/ps/ - Private School Detailed Affidavits", "source_id": "19649806153613", "source_date": null, "latitude": 34.014908, "longitude": -118.796588, "enrollment": 6, "label_class": "Private Schools", "last_update": "Mon, 10 Mar 2025 00:00:00 GMT"}}, {"type": "Feature", "id": 6309, "geometry": {"type": "Point", "coordinates": [-118.700147999943, 34.0386029996639]}, "properties": {"OBJECTID": 6309, "cat1": "Education", "cat2": "Elementary Schools", "cat3": "Private Schools", "name": "Our Lady of Malibu", "label": "Our Lady of Malibu", "addrln1": "3625 Winter Canyon Rd.", "addrln2": null, "city": "Malibu", "state": "CA", "zip": "90265-3853", "organization": "Santa Monica-Malibu Unified", "source": "https://www.cde.ca.gov/ds/si/ps/ - Private School Detailed Affidavits", "source_id": "19649806962914", "source_date": null, "latitude": 34.038603, "longitude": -118.700148, "enrollment": 73, "label_class": "Private Schools", "last_update": "Mon, 10 Mar 2025 00:00:00 GMT"}}]}